[{"OBJECT_NAME":"KOREASAT 116","OBJECT_ID":"2020-048A","EPOCH":"2026-04-01T11:45:00.396288","MEAN_MOTION":1.00269961,"ECCENTRICITY":0.0001077,"INCLINATION":0.0204,"RA_OF_ASC_NODE":212.1709,"ARG_OF_PERICENTER":180.2983,"MEAN_ANOMALY":89.8458,"EPHEMERIS_TYPE":0,"CLASSIFICATION_TYPE":"U","NORAD_CAT_ID":45920,"ELEMENT_SET_NO":999,"REV_AT_EPOCH":2087,"BSTAR":0,"MEAN_MOTION_DOT":0,"MEAN_MOTION_DDOT":0},{"OBJECT_NAME":"EXPRESS 103","OBJECT_ID":"2020-053A","EPOCH":"2026-04-01T11:39:23.435424","MEAN_MOTION":1.00273035,"ECCENTRICITY":9.68e-5,"INCLINATION":0.0241,"RA_OF_ASC_NODE":260.8454,"ARG_OF_PERICENTER":18.7129,"MEAN_ANOMALY":181.6272,"EPHEMERIS_TYPE":0,"CLASSIFICATION_TYPE":"U","NORAD_CAT_ID":45985,"ELEMENT_SET_NO":999,"REV_AT_EPOCH":2087,"BSTAR":0,"MEAN_MOTION_DOT":-2.9e-6,"MEAN_MOTION_DDOT":0},{"OBJECT_NAME":"EXPRESS 80","OBJECT_ID":"2020-053B","EPOCH":"2026-03-31T06:05:26.517696","MEAN_MOTION":1.00273098,"ECCENTRICITY":0.00021975,"INCLINATION":0.0355,"RA_OF_ASC_NODE":258.1319,"ARG_OF_PERICENTER":283.0696,"MEAN_ANOMALY":178.7785,"EPHEMERIS_TYPE":0,"CLASSIFICATION_TYPE":"U","NORAD_CAT_ID":45986,"ELEMENT_SET_NO":999,"REV_AT_EPOCH":2086,"BSTAR":0,"MEAN_MOTION_DOT":-1.5e-6,"MEAN_MOTION_DDOT":0},{"OBJECT_NAME":"BSAT-4B","OBJECT_ID":"2020-056A","EPOCH":"2026-04-01T11:43:15.562848","MEAN_MOTION":1.00272871,"ECCENTRICITY":0.0002293,"INCLINATION":0.0671,"RA_OF_ASC_NODE":115.0728,"ARG_OF_PERICENTER":329.9759,"MEAN_ANOMALY":30.4411,"EPHEMERIS_TYPE":0,"CLASSIFICATION_TYPE":"U","NORAD_CAT_ID":46112,"ELEMENT_SET_NO":999,"REV_AT_EPOCH":2062,"BSTAR":0,"MEAN_MOTION_DOT":-3.59e-6,"MEAN_MOTION_DDOT":0},{"OBJECT_NAME":"MEV-2","OBJECT_ID":"2020-056B","EPOCH":"2026-04-01T09:28:58.444032","MEAN_MOTION":1.00273625,"ECCENTRICITY":0.0001746,"INCLINATION":0.0437,"RA_OF_ASC_NODE":41.6591,"ARG_OF_PERICENTER":26.6715,"MEAN_ANOMALY":262.6383,"EPHEMERIS_TYPE":0,"CLASSIFICATION_TYPE":"U","NORAD_CAT_ID":46113,"ELEMENT_SET_NO":999,"REV_AT_EPOCH":7980,"BSTAR":0,"MEAN_MOTION_DOT":-2.1e-7,"MEAN_MOTION_DDOT":0},{"OBJECT_NAME":"GALAXY 30 (G-30)","OBJECT_ID":"2020-056C","EPOCH":"2026-04-01T12:11:38.789376","MEAN_MOTION":1.00272607,"ECCENTRICITY":0.0002244,"INCLINATION":0.022,"RA_OF_ASC_NODE":223.136,"ARG_OF_PERICENTER":166.2577,"MEAN_ANOMALY":218.3675,"EPHEMERIS_TYPE":0,"CLASSIFICATION_TYPE":"U","NORAD_CAT_ID":46114,"ELEMENT_SET_NO":999,"REV_AT_EPOCH":2052,"BSTAR":0,"MEAN_MOTION_DOT":2.7e-7,"MEAN_MOTION_DDOT":0},{"OBJECT_NAME":"GAOFEN-13 01","OBJECT_ID":"2020-071A","EPOCH":"2026-04-01T11:45:30.348576","MEAN_MOTION":1.00269877,"ECCENTRICITY":0.0042654,"INCLINATION":0.3236,"RA_OF_ASC_NODE":85.0772,"ARG_OF_PERICENTER":121.2528,"MEAN_ANOMALY":278.1241,"EPHEMERIS_TYPE":0,"CLASSIFICATION_TYPE":"U","NORAD_CAT_ID":46610,"ELEMENT_SET_NO":999,"REV_AT_EPOCH":2015,"BSTAR":0,"MEAN_MOTION_DOT":-3.72e-6,"MEAN_MOTION_DDOT":0},{"OBJECT_NAME":"TIANTONG-1 2","OBJECT_ID":"2020-082A","EPOCH":"2026-04-01T11:47:30.156864","MEAN_MOTION":1.00271436,"ECCENTRICITY":0.0002763,"INCLINATION":0.9037,"RA_OF_ASC_NODE":317.8145,"ARG_OF_PERICENTER":51.8998,"MEAN_ANOMALY":121.9514,"EPHEMERIS_TYPE":0,"CLASSIFICATION_TYPE":"U","NORAD_CAT_ID":46916,"ELEMENT_SET_NO":999,"REV_AT_EPOCH":1988,"BSTAR":0,"MEAN_MOTION_DOT":-3.66e-6,"MEAN_MOTION_DDOT":0},{"OBJECT_NAME":"LUCAS (JDRS-1)","OBJECT_ID":"2020-089A","EPOCH":"2026-04-01T11:37:46.090272","MEAN_MOTION":1.00273309,"ECCENTRICITY":0.0002692,"INCLINATION":0.0381,"RA_OF_ASC_NODE":267.4925,"ARG_OF_PERICENTER":95.9072,"MEAN_ANOMALY":91.6505,"EPHEMERIS_TYPE":0,"CLASSIFICATION_TYPE":"U","NORAD_CAT_ID":47202,"ELEMENT_SET_NO":999,"REV_AT_EPOCH":1964,"BSTAR":0,"MEAN_MOTION_DOT":-2.45e-6,"MEAN_MOTION_DDOT":0},{"OBJECT_NAME":"SXM-7","OBJECT_ID":"2020-096A","EPOCH":"2026-04-01T10:47:35.903040","MEAN_MOTION":1.00271242,"ECCENTRICITY":0.0004796,"INCLINATION":0.0254,"RA_OF_ASC_NODE":119.7924,"ARG_OF_PERICENTER":5.8472,"MEAN_ANOMALY":140.9018,"EPHEMERIS_TYPE":0,"CLASSIFICATION_TYPE":"U","NORAD_CAT_ID":47240,"ELEMENT_SET_NO":999,"REV_AT_EPOCH":667,"BSTAR":0,"MEAN_MOTION_DOT":-2.15e-6,"MEAN_MOTION_DDOT":0},{"OBJECT_NAME":"CMS-01","OBJECT_ID":"2020-099A","EPOCH":"2026-04-01T11:35:38.793696","MEAN_MOTION":1.00271078,"ECCENTRICITY":0.0005478,"INCLINATION":0.092,"RA_OF_ASC_NODE":92.3599,"ARG_OF_PERICENTER":201.794,"MEAN_ANOMALY":152.5773,"EPHEMERIS_TYPE":0,"CLASSIFICATION_TYPE":"U","NORAD_CAT_ID":47256,"ELEMENT_SET_NO":999,"REV_AT_EPOCH":1942,"BSTAR":0,"MEAN_MOTION_DOT":-1.74e-6,"MEAN_MOTION_DDOT":0},{"OBJECT_NAME":"TURKSAT 5A","OBJECT_ID":"2021-001A","EPOCH":"2026-04-01T07:46:38.656128","MEAN_MOTION":1.00272573,"ECCENTRICITY":5.6e-6,"INCLINATION":0.0218,"RA_OF_ASC_NODE":110.3871,"ARG_OF_PERICENTER":331.643,"MEAN_ANOMALY":255.2146,"EPHEMERIS_TYPE":0,"CLASSIFICATION_TYPE":"U","NORAD_CAT_ID":47306,"ELEMENT_SET_NO":999,"REV_AT_EPOCH":1919,"BSTAR":0,"MEAN_MOTION_DOT":1.44e-6,"MEAN_MOTION_DDOT":0},{"OBJECT_NAME":"TIANTONG-1 3","OBJECT_ID":"2021-003A","EPOCH":"2026-04-01T11:35:08.842272","MEAN_MOTION":1.00269879,"ECCENTRICITY":0.0003424,"INCLINATION":1.8244,"RA_OF_ASC_NODE":334.7322,"ARG_OF_PERICENTER":35.1797,"MEAN_ANOMALY":75.1988,"EPHEMERIS_TYPE":0,"CLASSIFICATION_TYPE":"U","NORAD_CAT_ID":47321,"ELEMENT_SET_NO":999,"REV_AT_EPOCH":1919,"BSTAR":0,"MEAN_MOTION_DOT":-1.66e-6,"MEAN_MOTION_DDOT":0},{"OBJECT_NAME":"TJS-6","OBJECT_ID":"2021-010A","EPOCH":"2026-04-01T12:59:38.704416","MEAN_MOTION":1.00272823,"ECCENTRICITY":0.0003302,"INCLINATION":0.4032,"RA_OF_ASC_NODE":89.2952,"ARG_OF_PERICENTER":299.6303,"MEAN_ANOMALY":174.3487,"EPHEMERIS_TYPE":0,"CLASSIFICATION_TYPE":"U","NORAD_CAT_ID":47613,"ELEMENT_SET_NO":999,"REV_AT_EPOCH":1904,"BSTAR":0,"MEAN_MOTION_DOT":3.4e-7,"MEAN_MOTION_DDOT":0},{"OBJECT_NAME":"SBIRS GEO-5 (USA 315)","OBJECT_ID":"2021-042A","EPOCH":"2026-04-01T03:05:12.748992","MEAN_MOTION":1.00271994,"ECCENTRICITY":0.0001446,"INCLINATION":5.202,"RA_OF_ASC_NODE":328.5454,"ARG_OF_PERICENTER":39.5081,"MEAN_ANOMALY":321.514,"EPHEMERIS_TYPE":0,"CLASSIFICATION_TYPE":"U","NORAD_CAT_ID":48618,"ELEMENT_SET_NO":999,"REV_AT_EPOCH":1799,"BSTAR":0,"MEAN_MOTION_DOT":-2.85e-6,"MEAN_MOTION_DDOT":0},{"OBJECT_NAME":"FENGYUN 4B","OBJECT_ID":"2021-047A","EPOCH":"2026-04-01T11:41:45.707712","MEAN_MOTION":1.00266696,"ECCENTRICITY":0.0006086,"INCLINATION":0.0585,"RA_OF_ASC_NODE":296.7501,"ARG_OF_PERICENTER":82.3979,"MEAN_ANOMALY":90.8133,"EPHEMERIS_TYPE":0,"CLASSIFICATION_TYPE":"U","NORAD_CAT_ID":48808,"ELEMENT_SET_NO":999,"REV_AT_EPOCH":1780,"BSTAR":0,"MEAN_MOTION_DOT":-3.39e-6,"MEAN_MOTION_DDOT":0},{"OBJECT_NAME":"SXM-8","OBJECT_ID":"2021-049A","EPOCH":"2026-04-01T08:59:38.476896","MEAN_MOTION":1.00260149,"ECCENTRICITY":0.0004758,"INCLINATION":0.0468,"RA_OF_ASC_NODE":31.3407,"ARG_OF_PERICENTER":349.92,"MEAN_ANOMALY":218.2413,"EPHEMERIS_TYPE":0,"CLASSIFICATION_TYPE":"U","NORAD_CAT_ID":48838,"ELEMENT_SET_NO":999,"REV_AT_EPOCH":1782,"BSTAR":0,"MEAN_MOTION_DOT":-2.14e-6,"MEAN_MOTION_DDOT":0},{"OBJECT_NAME":"TIANLIAN 1-05","OBJECT_ID":"2021-063A","EPOCH":"2026-04-01T06:08:40.154784","MEAN_MOTION":1.0027294,"ECCENTRICITY":0.0003582,"INCLINATION":1.396,"RA_OF_ASC_NODE":81.2867,"ARG_OF_PERICENTER":246.8742,"MEAN_ANOMALY":330.3668,"EPHEMERIS_TYPE":0,"CLASSIFICATION_TYPE":"U","NORAD_CAT_ID":49011,"ELEMENT_SET_NO":999,"REV_AT_EPOCH":1730,"BSTAR":0,"MEAN_MOTION_DOT":9.9e-7,"MEAN_MOTION_DDOT":0},{"OBJECT_NAME":"STAR ONE D2","OBJECT_ID":"2021-069A","EPOCH":"2026-04-01T10:51:57.983616","MEAN_MOTION":1.00270105,"ECCENTRICITY":8.95e-5,"INCLINATION":0.0257,"RA_OF_ASC_NODE":191.8136,"ARG_OF_PERICENTER":188.0551,"MEAN_ANOMALY":262.8758,"EPHEMERIS_TYPE":0,"CLASSIFICATION_TYPE":"U","NORAD_CAT_ID":49055,"ELEMENT_SET_NO":999,"REV_AT_EPOCH":1717,"BSTAR":0,"MEAN_MOTION_DOT":0,"MEAN_MOTION_DDOT":0},{"OBJECT_NAME":"EUTELSAT QUANTUM","OBJECT_ID":"2021-069B","EPOCH":"2026-04-01T05:07:38.738784","MEAN_MOTION":1.00272774,"ECCENTRICITY":0.0002474,"INCLINATION":0.0158,"RA_OF_ASC_NODE":224.812,"ARG_OF_PERICENTER":152.6984,"MEAN_ANOMALY":296.6937,"EPHEMERIS_TYPE":0,"CLASSIFICATION_TYPE":"U","NORAD_CAT_ID":49056,"ELEMENT_SET_NO":999,"REV_AT_EPOCH":1715,"BSTAR":0,"MEAN_MOTION_DOT":0,"MEAN_MOTION_DDOT":0},{"OBJECT_NAME":"ZHONGXING-2E","OBJECT_ID":"2021-071A","EPOCH":"2026-04-01T11:39:53.386848","MEAN_MOTION":1.00267633,"ECCENTRICITY":0.0001572,"INCLINATION":0.0063,"RA_OF_ASC_NODE":118.2891,"ARG_OF_PERICENTER":4.6447,"MEAN_ANOMALY":339.9162,"EPHEMERIS_TYPE":0,"CLASSIFICATION_TYPE":"U","NORAD_CAT_ID":49062,"ELEMENT_SET_NO":999,"REV_AT_EPOCH":1727,"BSTAR":0,"MEAN_MOTION_DOT":0,"MEAN_MOTION_DDOT":0},{"OBJECT_NAME":"TJS-7","OBJECT_ID":"2021-077A","EPOCH":"2026-04-01T10:43:28.797312","MEAN_MOTION":1.00271911,"ECCENTRICITY":0.0002117,"INCLINATION":0.3114,"RA_OF_ASC_NODE":87.0912,"ARG_OF_PERICENTER":285.1546,"MEAN_ANOMALY":238.9632,"EPHEMERIS_TYPE":0,"CLASSIFICATION_TYPE":"U","NORAD_CAT_ID":49115,"ELEMENT_SET_NO":999,"REV_AT_EPOCH":878,"BSTAR":0,"MEAN_MOTION_DOT":-1.33e-6,"MEAN_MOTION_DDOT":0},{"OBJECT_NAME":"CHINASAT 9B","OBJECT_ID":"2021-080A","EPOCH":"2026-03-31T13:25:58.132704","MEAN_MOTION":1.00271884,"ECCENTRICITY":0.00020639,"INCLINATION":0.0144,"RA_OF_ASC_NODE":228.8246,"ARG_OF_PERICENTER":119.0067,"MEAN_ANOMALY":144.0154,"EPHEMERIS_TYPE":0,"CLASSIFICATION_TYPE":"U","NORAD_CAT_ID":49125,"ELEMENT_SET_NO":999,"REV_AT_EPOCH":1687,"BSTAR":0,"MEAN_MOTION_DOT":-3.26e-6,"MEAN_MOTION_DDOT":0},{"OBJECT_NAME":"SHIJIAN-21 (SJ-21)","OBJECT_ID":"2021-094A","EPOCH":"2026-03-31T21:37:35.960160","MEAN_MOTION":1.00274729,"ECCENTRICITY":0.00477135,"INCLINATION":4.9314,"RA_OF_ASC_NODE":61.6107,"ARG_OF_PERICENTER":170.1235,"MEAN_ANOMALY":49.8921,"EPHEMERIS_TYPE":0,"CLASSIFICATION_TYPE":"U","NORAD_CAT_ID":49330,"ELEMENT_SET_NO":999,"REV_AT_EPOCH":458,"BSTAR":0,"MEAN_MOTION_DOT":-3.55e-6,"MEAN_MOTION_DDOT":0}]
